{
  "norad_id": 47568,
  "name": "STARLINK-1967",
  "history": [
    {
      "epoch": "2026-03-28T20:29:02.810400Z",
      "apogee_km": 370.4818269057496,
      "perigee_km": 367.68038194879136,
      "latitude_deg": 1.7671698975090438e-05,
      "longitude_deg": 137.38641464391767,
      "height_km": 371.3648494148112,
      "semi_major_axis_km": 6747.21810442727,
      "eccentricity": 0.0002076,
      "inclination_deg": 53.0428,
      "raan_deg": 270.9161,
      "arg_perigee_deg": 170.9242,
      "mean_anomaly_deg": 189.1811,
      "mean_motion_rev_day": 15.66446759
    }
  ]
}